LYNK TOWER 4            
1 55034U 23001AB  26068.67743801  .00009160  00000+0  30014-3 0  9997
2 55034  97.3324 128.5940 0010321 112.3386 247.8950 15.31819885176588
STARLINK-35566          
1 66061U 25235D   26068.75022623  .00021336  00000+0  73036-3 0  9991
2 66061  53.1598 244.7815 0000946  58.9602 301.1491 15.30202439 22936
